ONEWEB-0369             
1 49295U 21090S   23308.58710615  .00000035  00000+0  53942-4 0  9994
2 49295  87.9173 135.1748 0001618  79.6659 280.4656 13.19726367100370
ONEWEB-0370             
1 49296U 21090T   23308.50007174  .00000055  00000+0  10426-3 0  9997
2 49296  87.9149 104.6977 0001656  94.6647 265.4675 13.20773890103715
ONEWEB-0371             
1 49297U 21090U   23308.59500376  .00000025  00000+0  30624-4 0  9999
2 49297  87.9175 135.1626 0001535  82.8561 277.2746 13.19724457100412
ONEWEB-0372             
1 49298U 21090V   23308.48954504  .00000006  00000+0 -16872-4 0  9993
2 49298  87.9157 104.7011 0001253  85.2279 274.8997 13.20769121103685
ONEWEB-0373             
1 49299U 21090W   23308.51692231  .00000012  00000+0 -17374-5 0  9990
2 49299  87.9225 104.6835 0001954  85.1922 274.9434 13.20771009104874
ONEWEB-0374             
1 49300U 21090X   23308.53626921  .00003230  00000+0  86717-2 0  9996
2 49300  87.8936 119.9396 0001693  85.4752 274.6571 13.14533802102013
ONEWEB-0375             
1 49301U 21090Y   23308.50430754  .00000097  00000+0  20584-3 0  9990
2 49301  87.9146 104.6981 0002319 100.4201 259.7194 13.20771066104371
ONEWEB-0376             
1 49302U 21090Z   23308.59343016  .00000029  00000+0  39634-4 0  9996
2 49302  87.9176 135.1807 0001460  73.8933 286.2361 13.19725170100417
